OBJECT_NAME,OBJECT_ID,EPOCH,MEAN_MOTION,ECCENTRICITY,INCLINATION,RA_OF_ASC_NODE,ARG_OF_PERICENTER,MEAN_ANOMALY,EPHEMERIS_TYPE,CLASSIFICATION_TYPE,NORAD_CAT_ID,ELEMENT_SET_NO,REV_AT_EPOCH,BSTAR,MEAN_MOTION_DOT,MEAN_MOTION_DDOT
STARLINK-3593,2022-022AW,2026-06-07T17:01:15.640320,15.08826032,.0001401,53.1681,315.1862,85.5778,274.5373,0,U,51896,999,23688,.18522E-3,.266E-4,0
STARLINK-3598,2022-022AX,2026-06-08T03:31:49.507392,15.08837523,.0001202,53.1682,312.9965,87.3706,272.7423,0,U,51897,999,23690,.65299E-4,.751E-5,0
STARLINK-3597,2022-022AY,2026-06-08T03:26:33.389664,15.08820811,.0001029,53.1679,313.0132,81.9472,278.1636,0,U,51898,999,23695,-.23302E-4,-.658E-5,0
2022-023A,2022-023A,2026-06-08T04:58:59.840256,15.17917779,.0105397,63.4872,300.9047,343.0047,16.7544,0,U,51946,999,23635,.79662E-3,.186E-3,0
2022-023B,2022-023B,2026-06-06T16:32:18.468096,15.17875065,.0099316,63.4851,305.4434,347.4386,12.4252,0,U,51947,999,23612,.11308533E-3,.2365E-4,0
2022-023C,2022-023C,2026-06-08T05:03:33.813792,15.18018980,.0102017,63.4958,301.6972,350.3993,9.5167,0,U,51948,999,23635,.22678E-3,.5066E-4,0
2022-023D,2022-023D,2026-06-08T02:20:20.524128,15.17963880,.0123559,63.4554,302.6260,355.8667,4.1412,0,U,51949,999,23633,.75242E-3,.18578E-3,0
2022-023E,2022-023E,2026-06-08T05:03:16.639200,13.56285950,.0159035,63.4617,336.9406,348.6678,11.0789,0,U,51950,999,22081,.1172E-3,-.3E-7,0
2022-023F,2022-023F,2026-06-08T04:26:29.050944,15.17924392,.012928,63.4455,304.0842,342.7953,16.8795,0,U,51951,999,23634,.65776E-3,.16498E-3,0
STARLINK-3700,2022-025A,2026-06-07T17:15:58.801248,15.31705146,.0001001,53.1614,314.8575,74.2436,285.8676,0,U,51956,999,23496,.78368E-5,-.122E-5,0
STARLINK-3694,2022-025B,2026-06-07T18:43:54.964128,15.31718419,.0001114,53.1606,337.7926,78.8940,281.2186,0,U,51957,999,23463,.19062E-4,.227E-5,0
STARLINK-3692,2022-025C,2026-06-07T17:02:32.587296,15.31701415,.0000959,53.1603,314.8142,79.3533,280.7576,0,U,51958,999,23496,.28431E-4,.517E-5,0
STARLINK-3704,2022-025D,2026-06-07T18:38:16.276128,15.31701811,.0000984,53.1617,338.3856,84.2180,275.8934,0,U,51959,999,23462,.29124E-4,.539E-5,0
STARLINK-3691,2022-025E,2026-06-07T18:17:01.459680,15.31700836,.0001062,53.1597,337.6934,84.8482,275.2640,0,U,51960,999,23463,-.46085E-5,-.508E-5,0
STARLINK-3697,2022-025G,2026-06-08T03:36:28.022112,15.31702742,.0001042,53.1615,323.4978,94.5869,265.5251,0,U,51962,999,23487,.19077E-4,.227E-5,0
STARLINK-3675,2022-025H,2026-06-08T03:53:33.040608,15.31664550,.000124,53.1601,312.7052,76.2408,283.8732,0,U,51963,999,23503,.21558E-3,.6323E-4,0
STARLINK-3690,2022-025J,2026-06-07T17:52:33.909024,15.31699458,.0000969,53.1609,325.3729,72.9375,287.1732,0,U,51964,999,23481,.68749E-5,-.152E-5,0
STARLINK-3696,2022-025K,2026-06-07T17:57:00.184320,15.31695678,.0001343,53.1619,338.3011,105.3465,254.7685,0,U,51965,999,23462,-.21637E-4,-.1036E-4,0
STARLINK-3699,2022-025L,2026-06-07T17:43:31.767168,15.31700136,.0001115,53.1609,338.1002,91.9517,268.1612,0,U,51966,999,23462,-.47663E-5,-.513E-5,0
STARLINK-3681,2022-025N,2026-06-07T17:39:08.507232,15.31700310,.000101,53.1603,325.4188,77.7963,282.3152,0,U,51968,999,23481,-.32577E-5,-.466E-5,0
STARLINK-3680,2022-025P,2026-06-07T17:59:17.223360,15.31701195,.0000996,53.1603,325.3958,80.1762,279.9352,0,U,51969,999,23480,-.18721E-5,-.423E-5,0
STARLINK-3677,2022-025Q,2026-06-07T19:47:10.238784,15.30182357,.0001399,53.1589,338.0483,79.9718,280.1441,0,U,51970,999,23463,-.45209E-4,-.1697E-4,0
STARLINK-3669,2022-025R,2026-06-08T03:43:12.734400,15.31703426,.0000979,53.1607,323.6689,95.6750,264.4363,0,U,51971,999,23487,.98707E-5,-.59E-6,0
STARLINK-3671,2022-025S,2026-06-07T17:56:38.873760,15.29362297,.0001117,53.1565,338.3790,107.0382,253.0741,0,U,51972,999,23462,.91178E-4,.2277E-4,0
STARLINK-3679,2022-025T,2026-06-08T04:27:49.440096,15.31702175,.0000861,53.1602,335.9983,113.8570,246.2521,0,U,51973,999,23469,.16358E-4,.143E-5,0
STARLINK-3672,2022-025U,2026-06-07T19:10:47.983872,15.31817168,.0000648,53.1614,338.0289,65.1574,294.9495,0,U,51974,999,23462,-.86339E-3,-.27158E-3,0
STARLINK-3674,2022-025V,2026-06-07T17:45:45.947232,15.31705066,.0001149,53.1604,324.9284,91.2041,268.9092,0,U,51975,999,23482,-.89697E-4,-.3148E-4,0
STARLINK-3660,2022-025X,2026-06-07T18:30:03.861792,15.08820054,.0001119,53.1711,334.6985,101.3132,258.7985,0,U,51977,999,23493,-.2162E-4,-.632E-5,0
STARLINK-3649,2022-025AA,2026-06-07T19:40:11.686944,15.08842612,.0001184,53.1697,354.4701,95.5978,264.5148,0,U,51980,999,23466,-.1361E-4,-.505E-5,0
STARLINK-3635,2022-025AB,2026-06-07T20:01:23.794752,15.08827328,.0001135,53.1683,354.4039,95.4937,264.6184,0,U,51981,999,23466,-.31032E-4,-.782E-5,0
STARLINK-3655,2022-025AD,2026-06-07T19:56:05.822880,15.08834218,.0001084,53.1685,354.4303,88.6933,271.4182,0,U,51983,999,23466,.61748E-4,.695E-5,0
STARLINK-3664,2022-025AE,2026-06-07T19:15:05.757408,15.08832432,.0001081,53.1692,354.6345,85.5067,274.6048,0,U,51984,999,23466,-.26319E-4,-.707E-5,0
STARLINK-3651,2022-025AF,2026-06-07T18:11:29.581728,15.08833556,.0000987,53.1676,354.7584,81.1953,278.9150,0,U,51985,999,23465,.73214E-4,.877E-5,0
STARLINK-3645,2022-025AG,2026-06-07T20:06:40.211424,15.08832490,.0001171,53.1694,354.2342,91.6434,268.4692,0,U,51986,999,23467,.35971E-4,.285E-5,0
STARLINK-3644,2022-025AH,2026-06-07T19:13:42.301056,15.08841285,.0001157,53.1717,354.5519,84.8035,275.3089,0,U,51987,999,23466,-.9736E-4,-.1837E-4,0
STARLINK-3640,2022-025AJ,2026-06-07T20:22:35.701248,15.08834861,.0001268,53.1694,354.3395,105.0201,255.0931,0,U,51988,999,23467,.18022E-4,-.1E-7,0
STARLINK-3642,2022-025AK,2026-06-07T19:08:25.326240,15.08826607,.0001372,53.1724,354.5698,87.3653,272.7495,0,U,51989,999,23466,.13804E-4,-.68E-6,0
STARLINK-3657,2022-025AL,2026-06-07T18:23:19.356864,15.08911873,.0001098,53.1685,334.7098,84.1419,275.9698,0,U,51990,999,23493,-.10029E-2,-.16245E-3,0
STARLINK-3652,2022-025AM,2026-06-07T18:57:49.042944,15.08829332,.0001737,53.1689,354.6017,70.0723,290.0456,0,U,51991,999,23466,.2075E-4,.42E-6,0
STARLINK-3643,2022-025AN,2026-06-07T18:07:27.950304,15.08833572,.0001176,53.1708,334.7585,89.7457,270.3670,0,U,51992,999,23450,.23342E-4,.84E-6,0
STARLINK-3648,2022-025AP,2026-06-07T20:17:17.782944,15.08838161,.0001221,53.1684,354.3583,112.7598,247.3523,0,U,51993,999,23467,-.13517E-4,-.503E-5,0
STARLINK-3647,2022-025AQ,2026-06-07T18:02:09.975840,15.08835310,.0001364,53.1684,334.7756,90.5650,269.5498,0,U,51994,999,23451,.18925E-5,-.258E-5,0
STARLINK-3636,2022-025AR,2026-06-07T18:18:03.641760,15.08839746,.0001568,53.1681,334.7272,85.6758,274.4413,0,U,51995,999,23450,.37463E-4,.308E-5,0
STARLINK-3538,2022-025AS,2026-06-07T17:56:52.283040,15.08832872,.0001269,53.1710,334.7929,92.9044,267.2093,0,U,51996,999,23451,.30295E-4,.194E-5,0
STARLINK-3589,2022-025AT,2026-06-07T18:12:45.876384,15.08842198,.0001185,53.1716,334.7419,76.5277,283.5847,0,U,51997,999,23450,.19864E-3,.2875E-4,0
STARLINK-3618,2022-025AU,2026-06-07T18:49:53.014368,15.08821235,.0001171,53.1661,334.6275,102.3699,257.7424,0,U,51998,999,23452,-.43594E-4,-.981E-5,0
STARLINK-3653,2022-025AW,2026-06-07T18:28:38.368128,15.08837258,.0000884,53.1659,334.6024,96.7736,263.3356,0,U,52000,999,23452,-.38902E-4,-.907E-5,0
STARLINK-3659,2022-025AX,2026-06-08T04:18:15.447744,15.08828755,.0001218,53.1669,332.8619,99.3224,260.7905,0,U,52001,999,23458,-.16129E-4,-.545E-5,0
STARLINK-3668,2022-025AY,2026-06-08T04:16:52.754304,15.08829707,.0002063,53.1682,332.8962,138.3277,221.7872,0,U,52002,999,23458,.72257E-4,.862E-5,0
YAOGAN-34 02,2022-027A,2026-06-08T04:18:24.134400,13.45459696,.0051206,63.3959,224.2498,353.3675,6.6668,0,U,52084,999,20770,.15024E-4,-.81E-6,0
STARLINK-3712,2022-029C,2026-06-07T23:10:50.710944,15.08832046,.0001449,53.1684,43.8123,87.6720,272.4438,0,U,52090,999,23428,.60486E-4,.675E-5,0
STARLINK-3716,2022-029E,2026-06-07T23:16:08.554944,15.08833924,.0001134,53.1722,43.7965,85.5626,274.5495,0,U,52092,999,23428,.5889E-4,.649E-5,0
STARLINK-3673,2022-029F,2026-06-07T23:01:37.687008,15.08807976,.0001265,53.1676,43.8514,100.5761,259.5373,0,U,52093,999,23428,.31643E-3,.4747E-4,0
STARLINK-3714,2022-029G,2026-06-07T23:05:32.498016,15.08835100,.0001153,53.1660,43.8294,90.8170,269.2954,0,U,52094,999,23428,-.21866E-4,-.636E-5,0
STARLINK-3701,2022-029H,2026-06-07T22:49:38.331840,15.08839736,.0001434,53.1686,43.8774,97.3562,262.7592,0,U,52095,999,23428,.10148E-4,-.127E-5,0
STARLINK-3717,2022-029J,2026-06-07T22:19:10.368768,15.08836078,.0000967,53.1706,33.9754,89.2152,270.8950,0,U,52096,999,23440,-.46766E-4,-.1032E-4,0
STARLINK-3665,2022-029L,2026-06-07T22:54:57.393216,15.08807164,.0000888,53.1654,43.8626,86.7788,273.3305,0,U,52098,999,23428,.36026E-3,.5445E-4,0
STARLINK-3702,2022-029N,2026-06-07T22:44:21.228288,15.08827348,.0001435,53.1687,43.8958,101.3360,258.7793,0,U,52100,999,23428,.79182E-4,.972E-5,0
STARLINK-3703,2022-029P,2026-06-07T23:00:16.513344,15.08833561,.0001611,53.1690,44.0379,86.4817,273.6359,0,U,52101,999,23427,.13771E-3,.1904E-4,0
STARLINK-3709,2022-029Q,2026-06-07T22:47:04.344576,15.08821157,.0001228,53.1755,33.8879,85.8503,274.2629,0,U,52102,999,23441,.20533E-3,.298E-4,0
STARLINK-3705,2022-029R,2026-06-07T22:08:34.662624,15.08831619,.0001451,53.1690,34.0074,91.1548,268.9610,0,U,52103,999,23440,.2373E-3,.349E-4,0
STARLINK-3706,2022-029T,2026-06-07T21:59:21.170400,15.08853402,.0001226,53.1695,34.0367,100.1102,260.0028,0,U,52105,999,23440,.13085E-3,.1796E-4,0
STARLINK-3670,2022-029U,2026-06-07T09:45:22.288608,15.08832392,.000141,53.1745,46.3262,89.3404,270.7749,0,U,52106,999,23419,.32631E-4,.231E-5,0
STARLINK-3658,2022-029V,2026-06-07T23:28:03.723168,15.08839873,.0001277,53.1678,33.7607,100.6788,259.4348,0,U,52107,999,23441,.10537E-4,-.12E-5,0
STARLINK-3698,2022-029W,2026-06-07T22:03:16.407360,15.08840117,.0001145,53.1681,34.0231,82.7519,277.3602,0,U,52108,999,23440,.95879E-5,-.135E-5,0
STARLINK-3687,2022-029Y,2026-06-07T21:57:58.497696,15.08842678,.000126,53.1696,34.0404,95.5759,264.5376,0,U,52110,999,23440,.77738E-4,.95E-5,0
